#aV2022  3 23  0  0  0.00000000     288 DD+AD WGS84 FIT  NGA
## 2202 259200.00000000   300.00000000 59661 0.0000000000000
+   32     1  2  3  4  5  6  7  8  9 10 11 12 13 14 15 16 17
+         18 19 20 21 22 23 24 25 26 27 28 29 30 31 32  0  0
+          0  0  0  0  0  0  0  0  0  0  0  0  0  0  0  0  0
+          0  0  0  0  0  0  0  0  0  0  0  0  0  0  0  0  0
+          0  0  0  0  0  0  0  0  0  0  0  0  0  0  0  0  0
++         2  2  2  2  2  2  2  2  2  2  2  2  2  2  2  2  2
++         2  2  2  2  2  2  2  2  2  2  2  2  2  2  2  0  0
++         0  0  0  0  0  0  0  0  0  0  0  0  0  0  0  0  0
++         0  0  0  0  0  0  0  0  0  0  0  0  0  0  0  0  0
++         0  0  0  0  0  0  0  0  0  0  0  0  0  0  0  0  0
%c cc cc ccc ccc cccc cccc cccc cccc ccccc ccccc ccccc ccccc
%c cc cc ccc ccc cccc cccc cccc cccc ccccc ccccc ccccc ccccc
%f  0.0000000  0.000000000  0.00000000000  0.000000000000000
%f  0.0000000  0.000000000  0.00000000000  0.000000000000000
%i    0    0    0    0      0      0      0      0         0
%i    0    0    0    0      0      0      0      0         0
/*      NGA, ST. LOUIS,MO.                                  
/*   EPHEMERIS COMPUTED FROM 2 DAYS OF DATA                 
/*   EPOCHA v7 SMOOTHER                                     
/*   G2139 IERS2010 SATIGS SATAPC                           
*  2022  3 23 10 55  0.00000000
P  1 -20977.919666 -12231.031087  10882.052391    402.173969                    
V  1  -8403.360335 -11418.173837 -27949.739277     -0.090160                    
P  2  13054.277438  21120.300409   9886.619299   -652.557148                    
V  2 -10197.663691  -6109.135387  28554.220312     -0.003784                    
P  3 -14534.641356  -3398.301510  21863.336464   -175.946734                    
V  3   7922.239295 -26830.317397   1199.609786     -0.164053                    
P  4 -24773.896500  -1831.325877   9522.904724   -181.600372                    
V  4  11341.454989  -4768.897935  28525.760807      0.027825                    
P  5   7557.801998  18891.948906 -17151.344565    -75.681117                    
V  5  -7104.741387  20405.827976  19677.163168     -0.013428                    
P  6  -1252.838370  17775.337304  19735.677272    240.985779                    
V  6 -17653.521900 -17545.490887  14808.314846      0.130105                    
P  7 -16821.489699   2945.441373 -20074.658795    317.388298                    
V  7 -17221.389968 -19856.242659  10813.177883      0.017798                    
P  8 -18565.221598  -7782.374434 -17538.220678    -60.961104                    
V  8  21014.545888  -6859.435404 -18889.134950     -0.015598                    
P  9 -25547.807855   7265.190021  -1001.697116   -348.184155                    
V  9  -1896.936190  -2606.695276  31557.297204      0.021836                    
P 10  11555.111544 -22726.684990  -6736.044541   -355.617937                    
V 10    -24.688479   9178.915312 -30637.785353     -0.117831                    
P 11  11185.279528  22530.043674   8548.856950    -55.512261                    
V 11  -8931.227619  -6669.999100  29236.578763      0.088658                    
P 12  12822.419982   7954.828074  21597.784038   -189.178913                    
V 12 -10184.386728  26115.033897  -3404.392214     -0.057595                    
P 13  10203.367789  13340.679191 -20766.725994    281.625863                    
V 13 -25764.771672   3249.325020 -10488.150922      0.063996                    
P 14 -13142.177066  21778.401721  -7513.005307    -96.494296                    
V 14    334.143563  -9998.118913 -29662.980460     -0.034327                    
P 15  19850.863778   6199.722410 -17104.034829    -74.613416                    
V 15 -18901.111335   9186.365304 -18747.574865      0.029246                    
P 16  -2274.709758 -21803.649051 -14926.635812   -483.851555                    
V 16   8894.104974 -16525.511482  23659.075822     -0.042263                    
P 17 -16898.408887  13630.939041  15767.421632    590.931347                    
V 17 -19143.267570   1848.137009 -22689.879751      0.050030                    
P 18  16420.151497  -2937.704545 -20696.633884    213.251659                    
V 18  17010.584904  19959.778536  10563.470895     -0.089362                    
P 19  -9924.543370  14523.590871  19577.762484    134.737832                    
V 19 -25390.834251   2008.903110 -14357.046595      0.049824                    
P 20   3108.876944  24960.513968  -8902.260168    516.176999                    
V 20  -4422.529933  10762.787341  28381.731181     -0.001567                    
P 21 -20687.307415 -17195.741989   1644.079425    159.711250                    
V 21    588.263436  -2520.391871 -31224.132305      0.004214                    
P 22   6157.627001 -15672.775070  20904.793494    231.885365                    
V 22  25516.806005  -2917.316614 -10078.174135      0.058781                    
P 23  15390.337481 -14414.062190 -16100.162231     -9.160980                    
V 23  -3582.722672  20215.605845 -21628.700781     -0.031056                    
P 24  22001.250155  13805.540342   6207.363065    265.268640                    
V 24   3920.786692   7877.858856 -29572.258575     -0.039099                    
P 25  16299.353220  -6967.830922  19404.770992    302.159137                    
V 25  -5741.691872  24747.826062  13782.967418      0.051493                    
P 26   3940.582388 -25918.221958  -3127.625274    193.021836                    
V 26   4585.216127  -2918.079165  31101.664194      0.029685                    
P 27  -7002.549928 -13669.747142 -21908.492271    162.966378                    
V 27  26490.526968  -6401.508669  -4126.094527      0.116247                    
P 28  -8915.298428  25122.434869   1724.231158    374.842940                    
V 28  -2761.515685    552.338851 -31683.888116      0.013005                    
P 29  26310.787606  -3828.559170    474.340808   -494.658727                    
V 29   -323.591535   2184.706900  32163.099071     -0.044245                    
P 30 -10702.969198  11543.605923 -21311.505195   -520.185288                    
V 30 -18598.891033 -20036.497352  -1753.809446     -0.019547                    
P 31   -292.080194 -19291.152339  17919.365984   -170.193446                    
V 31  16958.076547  15954.668953  17788.910306     -0.016808                    
P 32  13161.170746 -15554.898416  17071.857614    -90.372066                    
V 32  21330.166941  -3264.511254 -19762.347814     -0.075553                    
EOF
